STARLINK-3897           
1 52537U 22051E   25192.57043891  .00000387  00000+0  42406-4 0  9995
2 52537  53.2166 131.3533 0001385  86.9333 273.1817 15.08841370175116
STARLINK-3933           
1 52538U 22051F   25192.25032358  .00012219  00000+0  78597-3 0  9993
2 52538  53.2174 132.9796 0001900  90.9434 269.1776 15.08768524175066
STARLINK-3757           
1 52539U 22051G   25192.12150903 -.00000332  00000+0 -27528-5 0  9992
2 52539  53.2168 133.5591 0001472  91.3907 268.7253 15.08833171175048
STARLINK-3940           
1 52540U 22051H   25191.58054921  .00000147  00000+0  27358-4 0  9998
2 52540  53.2169 136.0278 0001488  84.2975 275.8187 15.08836860174899
STARLINK-3845           
1 52541U 22051J   25192.53872611 -.00001780  00000+0 -93812-4 0  9993
2 52541  53.2174 136.6902 0001360  84.2327 275.8820 15.08836554175037
STARLINK-3937           
1 52542U 22051K   25191.57318573  .00000361  00000+0  40790-4 0  9998
2 52542  53.2167 136.0243 0001398  89.5249 270.5903 15.08837880174894
STARLINK-3926           
1 52543U 22051L   25192.11414659 -.00000087  00000+0  12594-4 0  9999
2 52543  53.2166 133.5926 0001355  88.1487 271.9660 15.08840133175044
STARLINK-3944           
1 52544U 22051M   25192.26640619 -.00000482  00000+0 -12212-4 0  9990
2 52544  53.2173 137.9200 0001442  90.8273 269.2884 15.08837621174995
STARLINK-3948           
1 52546U 22051P   25192.20707567  .00000021  00000+0  19388-4 0  9990
2 52546  53.2176 132.9476 0001405  76.8660 283.2489 15.08835735175063
STARLINK-3931           
1 52548U 22051R   25192.21352868  .00003025  00000+0  20816-3 0  9997
2 52548  53.2168 133.1493 0001173  86.2384 273.8743 15.08820340175062
STARLINK-3935           
1 52549U 22051S   25191.56950723 -.00000133  00000+0  97092-5 0  9999
2 52549  53.2168 136.0428 0001470  84.8057 275.3103 15.08835253174968
STARLINK-3965           
1 52550U 22051T   25192.22084413  .00003646  00000+0  24692-3 0  9994
2 52550  53.2167 133.1178 0001355  82.4829 277.6317 15.08862169175062
STARLINK-3969           
1 52551U 22051U   25191.56582866  .00000387  00000+0  42392-4 0  9993
2 52551  53.2172 136.0598 0001391  88.4745 271.6406 15.08836480174968
STARLINK-3966           
1 52552U 22051V   25192.15832570  .00000438  00000+0  45628-4 0  9992
2 52552  53.2166 133.5545 0001503  70.1600 289.9554 15.08836160175051
STARLINK-3858           
1 52553U 22051W   25192.52258405 -.00000321  00000+0 -21053-5 0  9993
2 52553  53.2171 131.4195 0001469  91.0163 269.0997 15.08837967175116
STARLINK-3770           
1 52554U 22051X   25192.26272478 -.00000120  00000+0  10568-4 0  9995
2 52554  53.2174 137.9257 0001497  83.2820 276.8342 15.08837269174994
STARLINK-3949           
1 52555U 22051Y   25191.78739902  .00129765  00000+0  80611-3 0  9993
2 52555  53.2211  56.8166 0004713 124.6539 235.4928 15.76110741176117
STARLINK-3763           
1 52556U 22051Z   25192.39939754  .00023956  00000+0  57669-3 0  9991
2 52556  53.1898  76.1929 0002709  85.2639 274.8676 15.41178054175889
STARLINK-3943           
1 52557U 22051AA  25191.54374549 -.00000107  00000+0  11399-4 0  9998
2 52557  53.2166 136.1569 0001369  86.6834 273.4315 15.08836531174898
STARLINK-3953           
1 52559U 22051AC  25192.21812718 -.00000211  00000+0  48638-5 0  9993
2 52559  53.2170 123.3100 0001484  90.2321 269.8841 15.08838168175199
STARLINK-3956           
1 52560U 22051AD  25192.20339442  .00001628  00000+0  12031-3 0  9990
2 52560  53.2169 123.1956 0001436  85.1151 275.0005 15.08848200175196
STARLINK-3955           
1 52561U 22051AE  25191.58928458 -.00000176  00000+0  70582-5 0  9997
2 52561  53.2163 140.9507 0001352  94.8308 265.2839 15.08841638174898
STARLINK-3957           
1 52562U 22051AF  25191.53362671  .00000394  00000+0  42878-4 0  9999
2 52562  53.2176 126.2036 0001456  90.7563 269.3596 15.08838392175024
STARLINK-3942           
1 52563U 22051AG  25191.59296359  .00000175  00000+0  29064-4 0  9994
2 52563  53.2164 140.9362 0001077  94.6155 265.4960 15.08838166174824
STARLINK-3959           
1 52564U 22051AH  25192.11648245  .00000363  00000+0  40919-4 0  9990
2 52564  53.2165 138.5961 0001447  77.4813 282.6341 15.08839356174977
STARLINK-3911           
1 52565U 22051AJ  25192.13346688  .00000984  00000+0  79933-4 0  9996
2 52565  53.2171 123.5098 0001780  80.4943 279.6250 15.08836288175188
STARLINK-3938           
1 52566U 22051AK  25192.22592856  .00000145  00000+0  27175-4 0  9997
2 52566  53.2171 138.0954 0001429  79.9376 280.1778 15.08833925174999
STARLINK-3929           
1 52567U 22051AL  25192.52354582  .00000362  00000+0  40860-4 0  9990
2 52567  53.2166 121.7601 0001476  86.8543 273.2618 15.08838864175249
STARLINK-3930           
1 52568U 22051AM  25192.51250805  .00000647  00000+0  58742-4 0  9997
2 52568  53.2173 121.8069 0001362  88.6904 271.4244 15.08836344175248
STARLINK-3927           
1 52569U 22051AN  25192.51988593  .00000315  00000+0  37906-4 0  9991
2 52569  53.2170 121.7758 0001393  87.2941 272.8210 15.08835385175242
STARLINK-3901           
1 52574U 22051AQ  25192.11874481  .00000328  00000+0  38664-4 0  9999
2 52574  53.2173 123.5759 0001279  99.9703 260.1434 15.08841815175187
STARLINK-3920           
1 52575U 22051AR  25192.35817997  .00108393  00000+0  62579-2 0  9996
2 52575  53.2166 122.3475 0001581 105.7397 254.3771 15.11458100175222
STARLINK-3932           
1 52576U 22051AS  25192.10130383  .00000206  00000+0  31058-4 0  9991
2 52576  53.2177 123.6523 0001413  91.7005 268.4149 15.08834544175183
STARLINK-3836           
1 52577U 22051AT  25192.54976882 -.00000098  00000+0  11916-4 0  9993
2 52577  53.2170 136.6406 0001325  85.6494 274.4650 15.08834690175048
STARLINK-3833           
1 52578U 22051AU  25192.15599950  .00001562  00000+0  11618-3 0  9992
2 52578  53.2174 138.4122 0001539  99.7478 260.3688 15.08841879174987
STARLINK-3893           
1 52579U 22051AV  25192.54240640 -.00000147  00000+0  88311-5 0  9990
2 52579  53.2173 136.6757 0001424  85.3634 274.7521 15.08836832175045
STARLINK-3919           
1 52580U 22051AW  25192.14960565  .00000040  00000+0  20603-4 0  9993
2 52580  53.2171 138.4489 0001343  85.9515 274.1631 15.08833984174984
STARLINK-3915           
1 52581U 22051AX  25192.49410416 -.00000109  00000+0  11227-4 0  9996
2 52581  53.2177 121.8867 0001451  89.1028 271.0130 15.08839103175241
STARLINK-3895           
1 52583U 22051AZ  25191.23186381  .00000072  00000+0  22629-4 0  9996
2 52583  53.2174 127.5538 0001436  90.6992 269.4165 15.08838224174980
STARLINK-3922           
1 52584U 22051BA  25192.49778153  .00000165  00000+0  28429-4 0  9997
2 52584  53.2174 121.8700 0001350  85.6951 274.4195 15.08839498175246
STARLINK-3906           
1 52585U 22051BB  25191.55202187 -.00001590  00000+0 -81834-4 0  9997
2 52585  53.2168 126.0789 0001264  88.5353 271.5784 15.08828336175102
STARLINK-3910           
1 52586U 22051BC  25192.22178626  .00000208  00000+0  31141-4 0  9992
2 52586  53.2169 123.1110 0001419  83.8371 276.2783 15.08836758175209
STARLINK-3867           
1 52587U 22051BD  25191.53824446  .00000366  00000+0  41080-4 0  9992
2 52587  53.2171 126.0369 0001376  87.2953 272.8196 15.08838691175036
STARLINK-3917           
1 52588U 22051BE  25192.54193929 -.00002050  00000+0 -11076-3 0  9995
2 52588  53.2165 121.6769 0000798 111.8720 248.2357 15.08849440175252
STARLINK-4019           
1 52598U 22052A   25191.58653183  .00000163  00000+0  28326-4 0  9991
2 52598  53.2186 290.9672 0001181  88.3464 271.7663 15.08835026174603
STARLINK-4024           
1 52599U 22052B   25192.50148086  .00000391  00000+0  42655-4 0  9990
2 52599  53.2182 281.9637 0001042  80.7203 279.3907 15.08841215174819
STARLINK-4026           
1 52600U 22052C   25191.55202842  .00000142  00000+0  27028-4 0  9999
2 52600  53.2179 286.1183 0001101  92.5146 267.5973 15.08834516174676
STARLINK-4027           
1 52601U 22052D   25192.55299147  .00000035  00000+0  20316-4 0  9999
2 52601  53.2170 281.6255 0001140  90.5176 269.5947 15.08832135174827
STARLINK-4012           
1 52602U 22052E   25192.54930899  .00000037  00000+0  20392-4 0  9991
2 52602  53.2174 281.6413 0000981  86.1697 273.9408 15.08836844174821
STARLINK-4016           
1 52603U 22052F   25192.53554469 -.00001069  00000+0 -49092-4 0  9992
2 52603  53.2177 281.7154 0001138  85.1701 274.9421 15.08840638174820
STARLINK-4013           
1 52604U 22052G   25191.54834519 -.00000042  00000+0  15430-4 0  9998
2 52604  53.2180 286.1372 0001262  90.5144 269.5993 15.08836253174670
STARLINK-4000           
1 52605U 22052H   25192.22409870 -.00000121  00000+0  10485-4 0  9996
2 52605  53.2174 287.8796 0001214  95.1156 264.9975 15.08836884174706
STARLINK-3928           
1 52606U 22052J   25191.54466333 -.00000203  00000+0  53303-5 0  9996
2 52606  53.2173 286.1514 0001217  84.8844 275.2287 15.08837697174678
STARLINK-3947           
1 52607U 22052K   25192.50380625 -.00002361  00000+0 -13029-3 0  9990
2 52607  53.2178 286.8570 0001340  94.5172 265.5973 15.08846667174741
STARLINK-3979           
1 52608U 22052L   25192.53091970  .00000485  00000+0  48535-4 0  9990
2 52608  53.2177 281.7272 0001318  80.0182 280.0959 15.08835767174824
STARLINK-3997           
1 52609U 22052M   25192.51986015 -.00000638  00000+0 -21998-4 0  9998
2 52609  53.2179 281.7277 0001141  87.0807 273.0316 15.08840404174820
STARLINK-3998           
1 52610U 22052N   25192.50651781  .00001025  00000+0  82436-4 0  9991
2 52610  53.2179 286.8355 0001134  84.2686 275.8435 15.08849061174742
STARLINK-3980           
1 52611U 22052P   25192.56541158  .00000172  00000+0  28920-4 0  9994
2 52611  53.2186 286.5708 0001103  91.6708 268.4411 15.08834710174751
STARLINK-4002           
1 52612U 22052Q   25192.52722626  .00000201  00000+0  30690-4 0  9992
2 52612  53.2183 281.7432 0001155  86.4494 273.6631 15.08838860174821
